[Satellite]
VERSION=1.1
NAME=NepaliSat-1
NICKNAME=NepaliSat-1
TLE1=1 44331U 98067QG  20157.70275441  .00007403  00000-0  10439-3 0  9994
TLE2=2 44331  51.6395  32.9692 0005080 327.2900  32.7776 15.57734132 55160
STATUS=0
